[{"OBJECT_NAME":"SHIYAN-1 (SY-1)","OBJECT_ID":"2004-012A","EPOCH":"2026-03-09T17:40:34.066560","MEAN_MOTION":15.31043463,"ECCENTRICITY":0.00058726,"INCLINATION":97.8764,"RA_OF_ASC_NODE":140.5238,"ARG_OF_PERICENTER":23.6952,"MEAN_ANOMALY":336.4557,"EPHEMERIS_TYPE":0,"CLASSIFICATION_TYPE":"U","NORAD_CAT_ID":28220,"ELEMENT_SET_NO":999,"REV_AT_EPOCH":19586,"BSTAR":0.00054854449,"MEAN_MOTION_DOT":0.00016393,"MEAN_MOTION_DDOT":0},{"OBJECT_NAME":"STARLINK-35785","OBJECT_ID":"2025-303P","EPOCH":"2026-03-08T16:48:27.758592","MEAN_MOTION":15.27590097,"ECCENTRICITY":0.00016468,"INCLINATION":42.998,"RA_OF_ASC_NODE":316.3187,"ARG_OF_PERICENTER":260.863,"MEAN_ANOMALY":99.2036,"EPHEMERIS_TYPE":0,"CLASSIFICATION_TYPE":"U","NORAD_CAT_ID":67176,"ELEMENT_SET_NO":999,"REV_AT_EPOCH":1258,"BSTAR":0.001349336,"MEAN_MOTION_DOT":0.00037067,"MEAN_MOTION_DDOT":0}]
